KUIPER-00112            
1 65150U 25171U   25294.89628383 -.00049672  00000+0 -13261-2 0  9996
2 65150  51.8766  60.3136 0003849  44.3466 315.7828 15.37529729 12212
KUIPER-00114            
1 65151U 25171V   25295.16667823  .00009208  00000+0  12048-2 0  9991
2 65151  51.9006  68.1698 0004514   9.3332  50.5365 14.80982370  5688
KUIPER-00115            
1 65152U 25171W   25295.16667823 -.01703474  00000+0 -12775+0 0  9995
2 65152  51.8924  62.2280 0009509  30.3954 247.4665 15.05518800  4930
KUIPER-00116            
1 65153U 25171X   25295.16667823 -.01369572  00000+0 -15836+0 0  9994
2 65153  51.8981  65.9376 0008368 356.1971 122.1067 14.88687528  4995
KUIPER-00118            
1 65154U 25171Y   25295.16667823 -.00031581  00000+0 -41108-2 0  9994
2 65154  51.9003  68.1272 0001206  16.7097 225.5866 14.80157915  4241
KUIPER-00119            
1 65155U 25171Z   25295.16667823 -.01267812  00000+0 -67673-1 0  9998
2 65155  51.8818  60.1806 0007517 350.0699 159.7701 15.17777773  5645
KUIPER-00120            
1 65762U 25217A   25295.16667823 -.00931399  00000+0 -33998-1 0  9993
2 65762  51.8650 314.1409 0008894 202.1919 242.1309 15.30445341  5093
KUIPER-00132            
1 65763U 25217B   25295.12901749  .00040190  00000+0  11431-2 0  9995
2 65763  51.8646 314.0828 0005822 192.2707 167.8137 15.35734668  4106
